#aV2012 11 12  0  0  0.00000000     288 DD+AD WGS84 FIT  NGA
## 1714  86400.00000000   300.00000000 56243 0.0000000000000
+   31     1  2  3  4  5  6  7  8  9 10 11 12 13 14 15 16 17
+         18 19 20 21 22 23 24 25 26 28 29 30 31 32  0  0  0
+          0  0  0  0  0  0  0  0  0  0  0  0  0  0  0  0  0
+          0  0  0  0  0  0  0  0  0  0  0  0  0  0  0  0  0
+          0  0  0  0  0  0  0  0  0  0  0  0  0  0  0  0  0
++         2  2  2  2  2  2  2  2  2  2  2  2  2  2  2  2  2
++         2  2  2  2  2  2  2  2  2  2  2  2  2  2  2  0  0
++         0  0  0  0  0  0  0  0  0  0  0  0  0  0  0  0  0
++         0  0  0  0  0  0  0  0  0  0  0  0  0  0  0  0  0
++         0  0  0  0  0  0  0  0  0  0  0  0  0  0  0  0  0
%c cc cc ccc ccc cccc cccc cccc cccc ccccc ccccc ccccc ccccc
%c cc cc ccc ccc cccc cccc cccc cccc ccccc ccccc ccccc ccccc
%f  0.0000000  0.000000000  0.00000000000  0.000000000000000
%f  0.0000000  0.000000000  0.00000000000  0.000000000000000
%i    0    0    0    0      0      0      0      0         0
%i    0    0    0    0      0      0      0      0         0
/*      NGA, ST. LOUIS,MO.                                  
/*   EPHEMERIS COMPUTED FROM  1 DAYS OF DATA
/*   EPOCHA SMOOTHER  
/* CCCCCCCCCCCCCCCCCCCCCCCCCCCCCCCCCCCCCCCCCCCCCCCCCCCCCCCCC
*  2012 11 12 14 10  0.00000000                                                 
P  1  14196.349646  -6931.778913  21320.914416    282.129156                    
V  1   3868.752976  26866.263096   6210.266254      0.018243                    
P  2 -14074.031826 -16012.512526 -15996.623381    408.712634                    
V  2   -779.879049 -20551.150397  20545.971489      0.010759                    
P  3  24623.694587   9705.596080  -3938.013484    127.434064                    
V  3  -5121.746832   2131.754026 -30434.834876      0.052098                    
P  4  -6528.665895 -25202.489223  -4643.596479     44.069965                    
V  4   2986.102868  -6039.202485  30673.047362      0.111574                    
P  5 -17937.050300  -3754.331157 -19302.331766   -366.062937                    
V  5  18710.922361 -15780.191590 -14195.238225     -0.025504                    
P  6  21593.129809  13686.691949  -7697.733469    459.011215                    
V  6 -10293.372376   -460.697403 -28992.089471     -0.118139                    
P  7   7470.586261 -21024.850169 -14146.347876    144.644192                    
V  7   3835.627754  17816.148627 -24662.437376      0.044945                    
P  8   1109.808906 -26096.039173  -2336.510985      2.821179                    
V  8   2165.058541   3094.167805 -32785.126308      0.001672                    
P  9 -14356.830139   1609.118848  21741.242044    199.183609                    
V  9  -3601.359433 -28649.323412   -312.173285      0.026907                    
P 10  -1806.014001 -16977.677161 -20521.524976    -58.231391                    
V 10  21474.762315 -13999.736386  10235.275048     -0.012405                    
P 11  17243.499549   -665.084404  19815.812606   -322.457900                    
V 11   9366.776244  24692.850850  -6872.215207     -0.038808                    
P 12 -23173.475207  10649.342653   7035.482421    101.229080                    
V 12   6071.603728  -6972.646245  30659.027665      0.020229                    
P 13  11981.767606  -9901.380861 -21685.769932    167.766232                    
V 13  23639.673514  13329.725895   6910.364835     -0.026744                    
P 14   6227.268628  17657.378099  19092.367876    216.602476                    
V 14 -21623.358455  -9847.153507  16187.791641      0.006568                    
P 15 -24949.041725  -2889.723107   8989.644124    -99.472170                    
V 15  -9517.409240  -6878.960316 -28359.083652     -0.009261                    
P 16  17569.773871   3881.158779 -19651.649301   -249.438409                    
V 16 -20027.702306  14612.566679 -14717.996864     -0.005516                    
P 17  -7328.034787 -17764.909278  18627.413592     79.300452                    
V 17  21492.476219   8747.464632  16727.632364     -0.034883                    
P 18 -13411.065007  20136.539012  10927.346628    224.261740                    
V 18 -12905.566137   5281.437009 -26850.320234      0.018497                    
P 19  24621.888491   7342.280064   7433.127311   -321.496243                    
V 19   7203.926730   6530.614779 -29612.574420     -0.034130                    
P 20  22277.422135 -13285.815290   5357.316712     73.155116                    
V 20  -3024.714730   7406.302903  30090.676182      0.011118                    
P 21  -5058.655788  23371.602355 -10427.065756   -261.757697                    
V 21  -5464.588932 -13709.019523 -27313.294988     -0.023829                    
P 22   -811.558918  18501.658171  19182.019680    151.145250                    
V 22 -20440.528306  12942.967869 -13607.990170      0.006344                    
P 23  21999.715802  -1793.433271 -14984.966109    144.737009                    
V 23  16610.695429   9392.303898  22789.607435     -0.038695                    
P 24 -15028.141678   2653.557112  21740.912123      4.077817                    
V 24  -3589.107819 -27371.303372    865.679141     -0.005049                    
P 25 -18749.705556  18213.321381  -4535.955718     50.787695                    
V 25  -6057.994483   1486.199483  31332.131043      0.018690                    
P 26 -22856.814388 -13828.556517  -2054.641911   -212.689896                    
V 26   2470.216286   -761.463937 -31832.783395      0.135567                    
P 28   5276.538008 -18594.021821  18688.465250    203.975992                    
V 28  19405.019241 -11636.626022 -17805.994749      0.036852                    
P 29 -13807.426626   9253.295147 -20658.682206    376.245347                    
V 29 -23340.483911 -12246.933270  10127.157475      0.039978                    
P 30   8848.887808  12659.028697 -21965.902226   -323.930485                    
V 30 -20014.200949  18180.916669   2431.394056      0.156130                    
P 31   7574.805587  24053.530554  -7723.397986    286.322453                    
V 31  -1280.071463  10289.941406  30294.529128      0.021945                    
P 32  22643.981722  -2912.882265  13304.919438   -507.213289                    
V 32 -12822.365069  11256.005913  25111.104922     -0.035535                    
EOF
